{
  "type": "FeatureCollection",
  "features": [
    {
      "type": "Feature",
      "properties": {
        "norad_id": 43057,
        "name": "GSAT0217 (GALILEO 21)",
        "group": "gnss",
        "lat": 27.55511274373616,
        "lon": -112.17162037180316,
        "alt_km": 23213.192602285035,
        "timestamp": "2025-12-17T17:50:19.493875+00:00",
        "meta_object_name": "GSAT0217 (GALILEO 21)",
        "meta_object_id": "2017-079C",
        "meta_epoch": "2025-12-16T12:20:28.313376",
        "meta_mean_motion": 1.70474073,
        "meta_eccentricity": 0.00027918,
        "meta_inclination": 55.1271,
        "meta_ra_of_asc_node": 226.5317,
        "meta_arg_of_pericenter": 347.0782,
        "meta_mean_anomaly": 13.0112,
        "meta_ephemeris_type": 0,
        "meta_classification_type": "U",
        "meta_norad_cat_id": 43057,
        "meta_element_set_no": 999,
        "meta_rev_at_epoch": 4987,
        "meta_bstar": 0,
        "meta_mean_motion_dot": 5e-07,
        "meta_mean_motion_ddot": 0,
        "tle_line1": "1 43057U 17079C   25350.51421659  .00000050  00000+0  00000+0 0  9994",
        "tle_line2": "2 43057  55.1271 226.5317 0002791 347.0782  13.0112  1.70474073 49877"
      },
      "geometry": {
        "type": "Point",
        "coordinates": [
          -112.17162037180316,
          27.55511274373616
        ]
      }
    },
    {
      "type": "Feature",
      "properties": {
        "norad_id": 43058,
        "name": "GSAT0218 (GALILEO 22)",
        "group": "gnss",
        "lat": -53.7107532159773,
        "lon": 118.11076418681479,
        "alt_km": 23222.293701707957,
        "timestamp": "2025-12-17T17:50:19.493890+00:00",
        "meta_object_name": "GSAT0218 (GALILEO 22)",
        "meta_object_id": "2017-079D",
        "meta_epoch": "2025-12-12T15:04:31.769472",
        "meta_mean_motion": 1.70474063,
        "meta_eccentricity": 0.00028411,
        "meta_inclination": 55.1287,
        "meta_ra_of_asc_node": 226.6365,
        "meta_arg_of_pericenter": 306.3289,
        "meta_mean_anomaly": 53.7237,
        "meta_ephemeris_type": 0,
        "meta_classification_type": "U",
        "meta_norad_cat_id": 43058,
        "meta_element_set_no": 999,
        "meta_rev_at_epoch": 4983,
        "meta_bstar": 0,
        "meta_mean_motion_dot": 1.7e-07,
        "meta_mean_motion_ddot": 0,
        "tle_line1": "1 43058U 17079D   25346.62814548  .00000017  00000+0  00000+0 0  9998",
        "tle_line2": "2 43058  55.1287 226.6365 0002841 306.3289  53.7237  1.70474063 49839"
      },
      "geometry": {
        "type": "Point",
        "coordinates": [
          118.11076418681479,
          -53.7107532159773
        ]
      }
    },
    {
      "type": "Feature",
      "properties": {
        "norad_id": 43107,
        "name": "BEIDOU-3 M7 (C27)",
        "group": "gnss",
        "lat": -52.92291717860121,
        "lon": -122.1345350785066,
        "alt_km": 21540.0129869047,
        "timestamp": "2025-12-17T17:50:19.493901+00:00",
        "meta_object_name": "BEIDOU-3 M7 (C27)",
        "meta_object_id": "2018-003A",
        "meta_epoch": "2025-12-13T13:33:25.741728",
        "meta_mean_motion": 1.86232202,
        "meta_eccentricity": 0.00026561,
        "meta_inclination": 54.4958,
        "meta_ra_of_asc_node": 308.7854,
        "meta_arg_of_pericenter": 70.3198,
        "meta_mean_anomaly": 289.6984,
        "meta_ephemeris_type": 0,
        "meta_classification_type": "U",
        "meta_norad_cat_id": 43107,
        "meta_element_set_no": 999,
        "meta_rev_at_epoch": 5389,
        "meta_bstar": 0,
        "meta_mean_motion_dot": -9.8e-07,
        "meta_mean_motion_ddot": 0,
        "tle_line1": "1 43107U 18003A   25347.56488127 -.00000098  00000+0  00000+0 0  9995",
        "tle_line2": "2 43107  54.4958 308.7854 0002656  70.3198 289.6984  1.86232202 53891"
      },
      "geometry": {
        "type": "Point",
        "coordinates": [
          -122.1345350785066,
          -52.92291717860121
        ]
      }
    },
    {
      "type": "Feature",
      "properties": {
        "norad_id": 43108,
        "name": "BEIDOU-3 M8 (C28)",
        "group": "gnss",
        "lat": -32.759682144206394,
        "lon": -78.7346925926896,
        "alt_km": 21522.442932381484,
        "timestamp": "2025-12-17T17:50:19.493913+00:00",
        "meta_object_name": "BEIDOU-3 M8 (C28)",
        "meta_object_id": "2018-003B",
        "meta_epoch": "2025-12-15T15:46:56.352288",
        "meta_mean_motion": 1.86230781,
        "meta_eccentricity": 0.00047156,
        "meta_inclination": 54.4868,
        "meta_ra_of_asc_node": 308.6954,
        "meta_arg_of_pericenter": 275.6738,
        "meta_mean_anomaly": 84.2592,
        "meta_ephemeris_type": 0,
        "meta_classification_type": "U",
        "meta_norad_cat_id": 43108,
        "meta_element_set_no": 999,
        "meta_rev_at_epoch": 5394,
        "meta_bstar": 0,
        "meta_mean_motion_dot": -9.9e-07,
        "meta_mean_motion_ddot": 0,
        "tle_line1": "1 43108U 18003B   25349.65759667 -.00000099  00000+0  00000+0 0  9999",
        "tle_line2": "2 43108  54.4868 308.6954 0004715 275.6738  84.2592  1.86230781 53940"
      },
      "geometry": {
        "type": "Point",
        "coordinates": [
          -78.7346925926896,
          -32.759682144206394
        ]
      }
    },
    {
      "type": "Feature",
      "properties": {
        "norad_id": 43207,
        "name": "BEIDOU-3 M4 (C22)",
        "group": "gnss",
        "lat": 18.24236827378439,
        "lon": 81.7440183967951,
        "alt_km": 21514.81589444225,
        "timestamp": "2025-12-17T17:50:19.493924+00:00",
        "meta_object_name": "BEIDOU-3 M4 (C22)",
        "meta_object_id": "2018-018A",
        "meta_epoch": "2025-12-13T22:50:30.052608",
        "meta_mean_motion": 1.8623122,
        "meta_eccentricity": 0.00041094,
        "meta_inclination": 56.4872,
        "meta_ra_of_asc_node": 69.2635,
        "meta_arg_of_pericenter": 7.3509,
        "meta_mean_anomaly": 352.6729,
        "meta_ephemeris_type": 0,
        "meta_classification_type": "U",
        "meta_norad_cat_id": 43207,
        "meta_element_set_no": 999,
        "meta_rev_at_epoch": 5329,
        "meta_bstar": 0,
        "meta_mean_motion_dot": -8.1e-07,
        "meta_mean_motion_ddot": 0,
        "tle_line1": "1 43207U 18018A   25347.95173672 -.00000081  00000+0  00000+0 0  9993",
        "tle_line2": "2 43207  56.4872  69.2635 0004109   7.3509 352.6729  1.86231220 53297"
      },
      "geometry": {
        "type": "Point",
        "coordinates": [
          81.7440183967951,
          18.24236827378439
        ]
      }
    },
    {
      "type": "Feature",
      "properties": {
        "norad_id": 43208,
        "name": "BEIDOU-3 M3 (C21)",
        "group": "gnss",
        "lat": -18.68577367359553,
        "lon": 56.225695586311765,
        "alt_km": 21513.29015273819,
        "timestamp": "2025-12-17T17:50:19.493937+00:00",
        "meta_object_name": "BEIDOU-3 M3 (C21)",
        "meta_object_id": "2018-018B",
        "meta_epoch": "2025-12-14T00:26:16.877760",
        "meta_mean_motion": 1.86231433,
        "meta_eccentricity": 0.00066523,
        "meta_inclination": 56.4868,
        "meta_ra_of_asc_node": 69.2653,
        "meta_arg_of_pericenter": 316.6996,
        "meta_mean_anomaly": 43.266,
        "meta_ephemeris_type": 0,
        "meta_classification_type": "U",
        "meta_norad_cat_id": 43208,
        "meta_element_set_no": 999,
        "meta_rev_at_epoch": 5329,
        "meta_bstar": 0,
        "meta_mean_motion_dot": -8.1e-07,
        "meta_mean_motion_ddot": 0,
        "tle_line1": "1 43208U 18018B   25348.01825090 -.00000081  00000+0  00000+0 0  9990",
        "tle_line2": "2 43208  56.4868  69.2653 0006652 316.6996  43.2660  1.86231433 53297"
      },
      "geometry": {
        "type": "Point",
        "coordinates": [
          56.225695586311765,
          -18.68577367359553
        ]
      }
    },
    {
      "type": "Feature",
      "properties": {
        "norad_id": 43245,
        "name": "BEIDOU-3 M9 (C29)",
        "group": "gnss",
        "lat": -10.117262372178887,
        "lon": 133.6178337911702,
        "alt_km": 21530.041877144915,
        "timestamp": "2025-12-17T17:50:19.493948+00:00",
        "meta_object_name": "BEIDOU-3 M9 (C29)",
        "meta_object_id": "2018-029A",
        "meta_epoch": "2025-12-16T22:03:42.750720",
        "meta_mean_motion": 1.86228481,
        "meta_eccentricity": 0.00015662,
        "meta_inclination": 54.3617,
        "meta_ra_of_asc_node": 306.3216,
        "meta_arg_of_pericenter": 284.8378,
        "meta_mean_anomaly": 75.1315,
        "meta_ephemeris_type": 0,
        "meta_classification_type": "U",
        "meta_norad_cat_id": 43245,
        "meta_element_set_no": 999,
        "meta_rev_at_epoch": 5250,
        "meta_bstar": 0,
        "meta_mean_motion_dot": -9.3e-07,
        "meta_mean_motion_ddot": 0,
        "tle_line1": "1 43245U 18029A   25350.91924480 -.00000093  00000+0  00000+0 0  9991",
        "tle_line2": "2 43245  54.3617 306.3216 0001566 284.8378  75.1315  1.86228481 52509"
      },
      "geometry": {
        "type": "Point",
        "coordinates": [
          133.6178337911702,
          -10.117262372178887
        ]
      }
    }
  ]
}